CCSDS_OMM_VERS = 2.0
CREATION_DATE  = 
ORIGINATOR     = 

OBJECT_NAME    = CORAL
OBJECT_ID      = 1998-067YB
CENTER_NAME    = EARTH
REF_FRAME      = TEME
TIME_SYSTEM    = UTC
MEAN_ELEMENT_THEORY = SGP/SGP4

EPOCH          = 2026-02-21T11:46:22.341504
MEAN_MOTION    = 15.50667475
ECCENTRICITY   = .00120287
INCLINATION    = 51.6309
RA_OF_ASC_NODE = 152.2369
ARG_OF_PERICENTER = 128.6764
MEAN_ANOMALY   = 231.5303

EPHEMERIS_TYPE = 0
CLASSIFICATION_TYPE = U
NORAD_CAT_ID   = 67685
ELEMENT_SET_NO = 999
REV_AT_EPOCH   = 227
BSTAR          = .74045553E-3
MEAN_MOTION_DOT = .43161E-3
MEAN_MOTION_DDOT = 0

CCSDS_OMM_VERS = 2.0
CREATION_DATE  = 
ORIGINATOR     = 

OBJECT_NAME    = ISS OBJECT YC
OBJECT_ID      = 1998-067YC
CENTER_NAME    = EARTH
REF_FRAME      = TEME
TIME_SYSTEM    = UTC
MEAN_ELEMENT_THEORY = SGP/SGP4

EPOCH          = 2026-02-21T11:44:10.470912
MEAN_MOTION    = 15.50924553
ECCENTRICITY   = .00077168
INCLINATION    = 51.6316
RA_OF_ASC_NODE = 152.2270
ARG_OF_PERICENTER = 100.0521
MEAN_ANOMALY   = 260.1340

EPHEMERIS_TYPE = 0
CLASSIFICATION_TYPE = U
NORAD_CAT_ID   = 67686
ELEMENT_SET_NO = 999
REV_AT_EPOCH   = 227
BSTAR          = .87490753E-3
MEAN_MOTION_DOT = .51525E-3
MEAN_MOTION_DDOT = 0

CCSDS_OMM_VERS = 2.0
CREATION_DATE  = 
ORIGINATOR     = 

OBJECT_NAME    = LEOPARD
OBJECT_ID      = 1998-067YD
CENTER_NAME    = EARTH
REF_FRAME      = TEME
TIME_SYSTEM    = UTC
MEAN_ELEMENT_THEORY = SGP/SGP4

EPOCH          = 2026-02-21T17:58:29.571168
MEAN_MOTION    = 15.50600655
ECCENTRICITY   = .0007779
INCLINATION    = 51.6313
RA_OF_ASC_NODE = 150.9634
ARG_OF_PERICENTER = 103.3723
MEAN_ANOMALY   = 256.8134

EPHEMERIS_TYPE = 0
CLASSIFICATION_TYPE = U
NORAD_CAT_ID   = 67687
ELEMENT_SET_NO = 999
REV_AT_EPOCH   = 223
BSTAR          = .6708E-3
MEAN_MOTION_DOT = .38879E-3
MEAN_MOTION_DDOT = 0

CCSDS_OMM_VERS = 2.0
CREATION_DATE  = 
ORIGINATOR     = 

OBJECT_NAME    = ISS OBJECT YE
OBJECT_ID      = 1998-067YE
CENTER_NAME    = EARTH
REF_FRAME      = TEME
TIME_SYSTEM    = UTC
MEAN_ELEMENT_THEORY = SGP/SGP4

EPOCH          = 2026-02-21T11:45:04.654944
MEAN_MOTION    = 15.50807123
ECCENTRICITY   = .00076999
INCLINATION    = 51.6323
RA_OF_ASC_NODE = 152.2323
ARG_OF_PERICENTER = 100.5477
MEAN_ANOMALY   = 259.6380

EPHEMERIS_TYPE = 0
CLASSIFICATION_TYPE = U
NORAD_CAT_ID   = 67688
ELEMENT_SET_NO = 999
REV_AT_EPOCH   = 219
BSTAR          = .8084201E-3
MEAN_MOTION_DOT = .47348E-3
MEAN_MOTION_DDOT = 0

CCSDS_OMM_VERS = 2.0
CREATION_DATE  = 
ORIGINATOR     = 

OBJECT_NAME    = PRC TEST SPACECRAFT 4
OBJECT_ID      = 2026-024A
CENTER_NAME    = EARTH
REF_FRAME      = TEME
TIME_SYSTEM    = UTC
MEAN_ELEMENT_THEORY = SGP/SGP4

EPOCH          = 2026-02-21T18:00:56.939328
MEAN_MOTION    = 14.91675597
ECCENTRICITY   = .000619
INCLINATION    = 49.9851
RA_OF_ASC_NODE = 97.5939
ARG_OF_PERICENTER = 298.8340
MEAN_ANOMALY   = 61.1980

EPHEMERIS_TYPE = 0
CLASSIFICATION_TYPE = U
NORAD_CAT_ID   = 67689
ELEMENT_SET_NO = 999
REV_AT_EPOCH   = 220
BSTAR          = .20596E-4
MEAN_MOTION_DOT = -.35E-6
MEAN_MOTION_DDOT = 0

CCSDS_OMM_VERS = 2.0
CREATION_DATE  = 
ORIGINATOR     = 

OBJECT_NAME    = CZ-2F R/B
OBJECT_ID      = 2026-024B
CENTER_NAME    = EARTH
REF_FRAME      = TEME
TIME_SYSTEM    = UTC
MEAN_ELEMENT_THEORY = SGP/SGP4

EPOCH          = 2026-02-21T14:43:06.452832
MEAN_MOTION    = 15.33627484
ECCENTRICITY   = .017629
INCLINATION    = 49.9860
RA_OF_ASC_NODE = 95.1883
ARG_OF_PERICENTER = 208.2335
MEAN_ANOMALY   = 150.8981

EPHEMERIS_TYPE = 0
CLASSIFICATION_TYPE = U
NORAD_CAT_ID   = 67690
ELEMENT_SET_NO = 999
REV_AT_EPOCH   = 222
BSTAR          = .33727E-3
MEAN_MOTION_DOT = .18108E-3
MEAN_MOTION_DDOT = 0

CCSDS_OMM_VERS = 2.0
CREATION_DATE  = 
ORIGINATOR     = 

OBJECT_NAME    = CZ-2F DEB
OBJECT_ID      = 2026-024C
CENTER_NAME    = EARTH
REF_FRAME      = TEME
TIME_SYSTEM    = UTC
MEAN_ELEMENT_THEORY = SGP/SGP4

EPOCH          = 2026-02-21T13:46:33.854880
MEAN_MOTION    = 15.75327618
ECCENTRICITY   = .0222626
INCLINATION    = 49.9058
RA_OF_ASC_NODE = 91.7640
ARG_OF_PERICENTER = 217.5213
MEAN_ANOMALY   = 141.0046

EPHEMERIS_TYPE = 0
CLASSIFICATION_TYPE = U
NORAD_CAT_ID   = 67691
ELEMENT_SET_NO = 999
REV_AT_EPOCH   = 225
BSTAR          = .81154E-3
MEAN_MOTION_DOT = .728837E-2
MEAN_MOTION_DDOT = .10432E-4

CCSDS_OMM_VERS = 2.0
CREATION_DATE  = 
ORIGINATOR     = 

OBJECT_NAME    = CZ-2F DEB
OBJECT_ID      = 2026-024D
CENTER_NAME    = EARTH
REF_FRAME      = TEME
TIME_SYSTEM    = UTC
MEAN_ELEMENT_THEORY = SGP/SGP4

EPOCH          = 2026-02-21T17:18:21.496896
MEAN_MOTION    = 15.18480537
ECCENTRICITY   = .0254582
INCLINATION    = 50.3137
RA_OF_ASC_NODE = 96.7881
ARG_OF_PERICENTER = 217.2024
MEAN_ANOMALY   = 141.1057

EPHEMERIS_TYPE = 0
CLASSIFICATION_TYPE = U
NORAD_CAT_ID   = 67692
ELEMENT_SET_NO = 999
REV_AT_EPOCH   = 219
BSTAR          = .38709E-2
MEAN_MOTION_DOT = .198431E-2
MEAN_MOTION_DDOT = 0

CCSDS_OMM_VERS = 2.0
CREATION_DATE  = 
ORIGINATOR     = 

OBJECT_NAME    = STARLINK-36748
OBJECT_ID      = 2026-025A
CENTER_NAME    = EARTH
REF_FRAME      = TEME
TIME_SYSTEM    = UTC
MEAN_ELEMENT_THEORY = SGP/SGP4

EPOCH          = 2026-02-21T20:00:01.999008
MEAN_MOTION    = 15.80809735
ECCENTRICITY   = .0001021
INCLINATION    = 97.2786
RA_OF_ASC_NODE = 163.5680
ARG_OF_PERICENTER = 61.2939
MEAN_ANOMALY   = 168.5794

EPHEMERIS_TYPE = 0
CLASSIFICATION_TYPE = U
NORAD_CAT_ID   = 67693
ELEMENT_SET_NO = 999
REV_AT_EPOCH   = 330
BSTAR          = .24989E-3
MEAN_MOTION_DOT = .47974E-3
MEAN_MOTION_DDOT = 0

CCSDS_OMM_VERS = 2.0
CREATION_DATE  = 
ORIGINATOR     = 

OBJECT_NAME    = STARLINK-36753
OBJECT_ID      = 2026-025B
CENTER_NAME    = EARTH
REF_FRAME      = TEME
TIME_SYSTEM    = UTC
MEAN_ELEMENT_THEORY = SGP/SGP4

EPOCH          = 2026-02-21T20:00:01.999008
MEAN_MOTION    = 15.81273005
ECCENTRICITY   = .000164
INCLINATION    = 97.2771
RA_OF_ASC_NODE = 163.5797
ARG_OF_PERICENTER = 83.9101
MEAN_ANOMALY   = 175.4534

EPHEMERIS_TYPE = 0
CLASSIFICATION_TYPE = U
NORAD_CAT_ID   = 67694
ELEMENT_SET_NO = 999
REV_AT_EPOCH   = 346
BSTAR          = -.35875E-2
MEAN_MOTION_DOT = -.652008E-2
MEAN_MOTION_DDOT = 0

CCSDS_OMM_VERS = 2.0
CREATION_DATE  = 
ORIGINATOR     = 

OBJECT_NAME    = STARLINK-36750
OBJECT_ID      = 2026-025C
CENTER_NAME    = EARTH
REF_FRAME      = TEME
TIME_SYSTEM    = UTC
MEAN_ELEMENT_THEORY = SGP/SGP4

EPOCH          = 2026-02-21T20:00:01.999008
MEAN_MOTION    = 15.80789743
ECCENTRICITY   = .0000712
INCLINATION    = 97.2780
RA_OF_ASC_NODE = 163.5720
ARG_OF_PERICENTER = 115.4736
MEAN_ANOMALY   = 125.1733

EPHEMERIS_TYPE = 0
CLASSIFICATION_TYPE = U
NORAD_CAT_ID   = 67695
ELEMENT_SET_NO = 999
REV_AT_EPOCH   = 330
BSTAR          = .2688E-3
MEAN_MOTION_DOT = .51588E-3
MEAN_MOTION_DDOT = 0

CCSDS_OMM_VERS = 2.0
CREATION_DATE  = 
ORIGINATOR     = 

OBJECT_NAME    = STARLINK-36401
OBJECT_ID      = 2026-025D
CENTER_NAME    = EARTH
REF_FRAME      = TEME
TIME_SYSTEM    = UTC
MEAN_ELEMENT_THEORY = SGP/SGP4

EPOCH          = 2026-02-21T20:00:01.999008
MEAN_MOTION    = 15.80945594
ECCENTRICITY   = .0000926
INCLINATION    = 97.2777
RA_OF_ASC_NODE = 163.5757
ARG_OF_PERICENTER = 72.3469
MEAN_ANOMALY   = 177.0665

EPHEMERIS_TYPE = 0
CLASSIFICATION_TYPE = U
NORAD_CAT_ID   = 67696
ELEMENT_SET_NO = 999
REV_AT_EPOCH   = 330
BSTAR          = -.98107E-3
MEAN_MOTION_DOT = -.18522E-2
MEAN_MOTION_DDOT = 0

