CORAL                   
1 67685U 98067YB  26052.49053636  .00043161  00000+0  74046-3 0  9991
2 67685  51.6309 152.2369 0012028 128.6764 231.5303 15.50667475  2277
ISS OBJECT YC           
1 67686U 98067YC  26052.48901008  .00051525  00000+0  87491-3 0  9997
2 67686  51.6316 152.2270 0007716 100.0521 260.1340 15.50924553  2272
LEOPARD                 
1 67687U 98067YD  26052.74895337  .00038879  00000+0  67080-3 0  9993
2 67687  51.6313 150.9634 0007779 103.3723 256.8134 15.50600655  2231
ISS OBJECT YE           
1 67688U 98067YE  26052.48963721  .00047348  00000+0  80842-3 0  9990
2 67688  51.6323 152.2323 0007699 100.5477 259.6380 15.50807123  2197
PRC TEST SPACECRAFT 4   
1 67689U 26024A   26052.75065902 -.00000035  00000+0  20596-4 0  9993
2 67689  49.9851  97.5939 0006190 298.8340  61.1980 14.91675597  2209
CZ-2F R/B               
1 67690U 26024B   26052.61326913  .00018108  00000+0  33727-3 0  9990
2 67690  49.9860  95.1883 0176290 208.2335 150.8981 15.33627484  2229
CZ-2F DEB               
1 67691U 26024C   26052.57400295  .00728837  10432-4  81154-3 0  9991
2 67691  49.9058  91.7640 0222626 217.5213 141.0046 15.75327618  2254
CZ-2F DEB               
1 67692U 26024D   26052.72108214  .00198431  00000+0  38709-2 0  9998
2 67692  50.3137  96.7881 0254582 217.2024 141.1057 15.18480537  2197
STARLINK-36748          
1 67693U 26025A   26052.83335647  .00047974  00000+0  24989-3 0  9995
2 67693  97.2786 163.5680 0001021  61.2939 168.5794 15.80809735  3307
STARLINK-36753          
1 67694U 26025B   26052.83335647 -.00652008  00000+0 -35875-2 0  9993
2 67694  97.2771 163.5797 0001640  83.9101 175.4534 15.81273005  3462
STARLINK-36750          
1 67695U 26025C   26052.83335647  .00051588  00000+0  26880-3 0  9995
2 67695  97.2780 163.5720 0000712 115.4736 125.1733 15.80789743  3309
STARLINK-36401          
1 67696U 26025D   26052.83335647 -.00185220  00000+0 -98107-3 0  9990
2 67696  97.2777 163.5757 0000926  72.3469 177.0665 15.80945594  3305
